NORAD_CAT_ID,OBJECT_NAME,OBJECT_TYPE,EPOCH,MEAN_MOTION,ECCENTRICITY,INCLINATION,RA_OF_ASC_NODE,ARG_OF_PERICENTER,MEAN_ANOMALY,BSTAR,MEAN_MOTION_DOT,MEAN_MOTION_DDOT,TLE_LINE0,TLE_LINE1,TLE_LINE2,SEMIMAJOR_AXIS,PERIOD,APOGEE,PERIGEE,DECAYED
52136.0,STARLINK-3720,PAYLOAD,2022-07-12 14:00:01,15.08860829,0.0001385999999999,53.2169,307.119,66.2776,193.3093,-0.00080762,-0.00013125,0.0,0 STARLINK-3720,1 52136U 22029BA  22193.58334491 -.00013125  00000-0 -80762-3 0  9996,2 52136  53.2169 307.1190 0001386  66.2776 193.3093 15.08860829 19227,6917.816999999999,95.436,540.641,538.7230000000002,0.0
52136.0,STARLINK-3720,PAYLOAD,2022-07-12 22:00:00,15.08886916,0.0001329,53.2167,305.6223,64.4484,206.7533,-0.0016795,-0.00026952,0.0,0 STARLINK-3720,1 52136U 22029BA  22193.91667824 -.00026952  00000-0 -16795-2 0  9998,2 52136  53.2167 305.6223 0001329  64.4484 206.7533 15.08886916  1301,6917.736999999999,95.435,540.521,538.683,0.0
52136.0,STARLINK-3720,PAYLOAD,2022-07-13 04:00:00,15.08860074,0.0001293,53.2169,304.4988,73.1888,116.748,-0.00023128,-3.969e-05,0.0,0 STARLINK-3720,1 52136U 22029BA  22194.16667824 -.00003969  00000-0 -23128-3 0  9998,2 52136  53.2169 304.4988 0001293  73.1888 116.7480 15.08860074 19311,6917.819,95.436,540.5790000000002,538.79,0.0
52136.0,STARLINK-3720,PAYLOAD,2022-07-13 14:00:01,15.08839057,0.000149,53.2169,302.63,68.9798,225.4749,-0.0017487,-0.0002801,0.0,0 STARLINK-3720,1 52136U 22029BA  22194.58334491 -.00028010  00000-0 -17487-2 0  9999,2 52136  53.2169 302.6300 0001490  68.9798 225.4749 15.08839057  1303,6917.8830000000025,95.438,540.779,538.7180000000002,0.0
52136.0,STARLINK-3720,PAYLOAD,2022-07-13 22:00:00,15.08832939,0.0001374,53.2165,301.1333,67.2589,238.7762,-0.0023634,-0.00037697,0.0,0 STARLINK-3720,1 52136U 22029BA  22194.91667824 -.00037697  00000-0 -23634-2 0  9997,2 52136  53.2165 301.1333 0001374  67.2589 238.7762 15.08832939 19426,6917.901999999999,95.438,540.717,538.816,0.0
52136.0,STARLINK-3720,PAYLOAD,2022-07-14 14:00:01,15.08824313,0.0001386999999999,53.2164,298.1415,68.1348,261.0399,7.4473e-05,8.97e-06,0.0,0 STARLINK-3720,1 52136U 22029BA  22195.58334491  .00000897  00000-0  74473-4 0  9991,2 52136  53.2164 298.1415 0001387  68.1348 261.0399 15.08824313 19521,6917.928000000001,95.439,540.753,538.8340000000002,0.0
52136.0,STARLINK-3720,PAYLOAD,2022-07-14 22:00:00,15.08850426,0.0001309,53.2159,296.6446,67.70100000000001,273.0474,-0.0016536,-0.00026516,0.0,0 STARLINK-3720,1 52136U 22029BA  22195.91667824 -.00026516  00000-0 -16536-2 0  9999,2 52136  53.2159 296.6446 0001309  67.7010 273.0474 15.08850426  1305,6917.849,95.437,540.619,538.808,0.0
52136.0,STARLINK-3720,PAYLOAD,2022-07-15 14:00:01,15.08857575,0.0001396999999999,53.2156,293.6528,67.8317,296.1171,-0.00073983,-0.00012049,0.0,0 STARLINK-3720,1 52136U 22029BA  22196.58334491 -.00012049  00000-0 -73983-3 0  9990,2 52136  53.2156 293.6528 0001397  67.8317 296.1171 15.08857575 19680,6917.8269999999975,95.436,540.658,538.725,0.0
52136.0,STARLINK-3720,PAYLOAD,2022-07-15 22:00:00,15.08862146,0.0001383,53.2151,292.1556,68.8367,306.7264,-0.0024836,-0.00039621,0.0,0 STARLINK-3720,1 52136U 22029BA  22196.91667824 -.00039621  00000-0 -24836-2 0  9993,2 52136  53.2151 292.1556 0001383  68.8367 306.7264 15.08862146  1302,6917.813,95.436,540.634,538.721,0.0
52136.0,STARLINK-3720,PAYLOAD,2022-07-16 14:00:01,15.08828417,0.0001398,53.2149,289.1637,66.6964,332.0807,0.00036767,5.567e-05,0.0,0 STARLINK-3720,1 52136U 22029BA  22197.58334491  .00005567  00000-0  36767-3 0  9995,2 52136  53.2149 289.1637 0001398  66.6964 332.0807 15.08828417  1308,6917.916,95.438,540.748,538.814,0.0
52136.0,STARLINK-3720,PAYLOAD,2022-07-16 22:00:00,15.08871787,0.000127,53.2146,287.6662,64.9101,345.4568,-0.0028795,-0.00045863,0.0,0 STARLINK-3720,1 52136U 22029BA  22197.91667824 -.00045863  00000-0 -28795-2 0  9997,2 52136  53.2146 287.6662 0001270  64.9101 345.4568 15.08871787 19881,6917.783,95.436,540.5269999999998,538.77,0.0
52136.0,STARLINK-3720,PAYLOAD,2022-07-17 14:00:01,15.08844448,0.0001375999999999,53.2147,284.6743,61.4701,12.0951,-0.0012773,-0.00020561,0.0,0 STARLINK-3720,1 52136U 22029BA  22198.58334491 -.00020561  00000-0 -12773-2 0  9999,2 52136  53.2147 284.6743 0001376  61.4701  12.0951 15.08844448 19982,6917.8669999999975,95.437,540.684,538.78,0.0
52136.0,STARLINK-3720,PAYLOAD,2022-07-17 22:00:00,15.08846768,0.0001385999999999,53.2157,283.1802,62.2671,22.888,-0.0050664,-0.00080039,0.0,0 STARLINK-3720,1 52136U 22029BA  22198.91667824 -.00080039  00000-0 -50664-2 0  9992,2 52136  53.2157 283.1802 0001386  62.2671  22.8880 15.08846768  1303,6917.86,95.437,540.684,538.766,0.0
52136.0,STARLINK-3720,PAYLOAD,2022-07-18 14:00:01,15.08798759,0.0001558,53.2148,280.1849,63.3611,44.9131,0.00151,0.00023798,0.0,0 STARLINK-3720,1 52136U 22029BA  22199.58334491  .00023798  00000-0  15100-2 0  9990,2 52136  53.2148 280.1849 0001558  63.3611  44.9131 15.08798759  1308,6918.005999999999,95.44,540.9490000000002,538.794,0.0
52136.0,STARLINK-3720,PAYLOAD,2022-07-18 22:00:00,15.08829974,0.0001466,53.2149,278.6873,65.4408,54.3875,-0.0011866,-0.00019118,0.0,0 STARLINK-3720,1 52136U 22029BA  22199.91667824 -.00019118  00000-0 -11866-2 0  9994,2 52136  53.2149 278.6873 0001466  65.4408  54.3875 15.08829974 20184,6917.911,95.438,540.79,538.762,0.0
52136.0,STARLINK-3720,PAYLOAD,2022-07-19 14:00:01,15.08825307,0.0001569,53.2152,275.6954,61.3425,81.6603,0.002067,0.00032748,0.0,0 STARLINK-3720,1 52136U 22029BA  22200.58334491  .00032748  00000-0  20670-2 0  9996,2 52136  53.2152 275.6954 0001569  61.3425  81.6603 15.08825307 20282,6917.925,95.438,540.876,538.705,0.0
52136.0,STARLINK-3720,PAYLOAD,2022-07-19 22:00:00,15.08826062,0.0001501999999999,53.2161,274.2022,62.4138,92.1805,0.0048823999999999,0.00078249,0.0,0 STARLINK-3720,1 52136U 22029BA  22200.91667824  .00078249  00000-0  48824-2 0  9999,2 52136  53.2161 274.2022 0001502  62.4138  92.1805 15.08826062  1305,6917.9230000000025,95.438,540.827,538.749,0.0
52136.0,STARLINK-3720,PAYLOAD,2022-07-20 14:00:01,15.08846348,0.0001508,53.2154,271.2058,59.1551,118.6751,-0.00035027,-5.859e-05,0.0,0 STARLINK-3720,1 52136U 22029BA  22201.58334491 -.00005859  00000-0 -35027-3 0  9995,2 52136  53.2154 271.2058 0001508  59.1551 118.6751 15.08846348  1304,6917.861,95.437,540.769,538.683,0.0
52136.0,STARLINK-3720,PAYLOAD,2022-07-20 22:00:01,15.08839113,0.0001437,53.2154,269.7079,65.687,123.8025,-0.00073654,-0.00011991,0.0,0 STARLINK-3720,1 52136U 22029BA  22201.91668981 -.00011991  00000-0 -73654-3 0  9998,2 52136  53.2154 269.7079 0001437  65.6870 123.8025 15.08839113  1300,6917.8830000000025,95.438,540.742,538.754,0.0
52136.0,STARLINK-3720,PAYLOAD,2022-07-21 14:00:01,15.08790691,0.0001639,53.2154,266.7165,62.5991,150.0579,0.0025447,0.00040389,0.0,0 STARLINK-3720,1 52136U 22029BA  22202.58335648  .00040389  00000-0  25447-2 0  9990,2 52136  53.2154 266.7165 0001639  62.5991 150.0579 15.08790691 20581,6918.031,95.441,541.03,538.762,0.0
52136.0,STARLINK-3720,PAYLOAD,2022-07-21 22:00:00,15.08818009,0.0001501,53.2152,265.2187,68.3804,155.7693,-0.00033004,-5.534e-05,0.0,0 STARLINK-3720,1 52136U 22029BA  22202.91667824 -.00005534  00000-0 -33004-3 0  9995,2 52136  53.2152 265.2187 0001501  68.3804 155.7693 15.08818009  1304,6917.948,95.439,540.851,538.774,0.0
52136.0,STARLINK-3720,PAYLOAD,2022-07-22 06:00:00,15.0883636,0.0001525,53.2153,263.7226,72.1246,163.5895,-0.00048717,-8.032e-05,0.0,0 STARLINK-3720,1 52136U 22029BA  22203.25001157 -.00008032  00000-0 -48717-3 0  9997,2 52136  53.2153 263.7226 0001525  72.1246 163.5895 15.08836360  1302,6917.892,95.438,540.811,538.702,0.0
52136.0,STARLINK-3720,PAYLOAD,2022-07-22 22:00:00,15.08834668,0.0001496999999999,53.2158,260.7296,68.9856,189.903,0.000306,4.585e-05,0.0,0 STARLINK-3720,1 52136U 22029BA  22203.91667824  .00004585  00000-0  30600-3 0  9998,2 52136  53.2158 260.7296 0001497  68.9856 189.9030 15.08834668  1301,6917.897,95.438,540.797,538.726,0.0
52136.0,STARLINK-3720,PAYLOAD,2022-07-23 06:00:00,15.08856984,0.0001534,53.2168,259.2336,71.9425,198.5314,-0.00080947,-0.00013154,0.0,0 STARLINK-3720,1 52136U 22029BA  22204.25001157 -.00013154  00000-0 -80947-3 0  9990,2 52136  53.2168 259.2336 0001534  71.9425 198.5314 15.08856984 20833,6917.828,95.436,540.755,538.632,0.0
52136.0,STARLINK-3720,PAYLOAD,2022-07-23 14:00:01,15.08820938,0.0001617,53.2165,257.7386,63.0904,219.0508,0.0028447,0.00045253,0.0,0 STARLINK-3720,1 52136U 22029BA  22204.58335648  .00045253  00000-0  28447-2 0  9990,2 52136  53.2165 257.7386 0001617  63.0904 219.0508 15.08820938  1309,6917.939,95.439,540.922,538.685,0.0
52136.0,STARLINK-3720,PAYLOAD,2022-07-23 22:00:00,15.08846018,0.0001503,53.2164,256.2405,69.0688,224.6154,0.00088469,0.00013822,0.0,0 STARLINK-3720,1 52136U 22029BA  22204.91667824  .00013822  00000-0  88469-3 0  9999,2 52136  53.2164 256.2405 0001503  69.0688 224.6154 15.08846018  1309,6917.861999999999,95.437,540.7669999999998,538.687,0.0
52136.0,STARLINK-3720,PAYLOAD,2022-07-24 14:00:01,15.08846098,0.0001574,53.2161,253.2496,61.0393,255.8649,-7.3806e-05,-1.463e-05,0.0,0 STARLINK-3720,1 52136U 22029BA  22205.58334491 -.00001463  00000-0 -73806-4 0  9994,2 52136  53.2161 253.2496 0001574  61.0393 255.8649 15.08846098  1309,6917.861999999999,95.437,540.816,538.638,0.0
52136.0,STARLINK-3720,PAYLOAD,2022-07-24 22:00:00,15.08821932,0.0001419999999999,53.2161,251.7514,66.2135,262.3004,0.0011799,0.00018531,0.0,0 STARLINK-3720,1 52136U 22029BA  22205.91667824  .00018531  00000-0  11799-2 0  9993,2 52136  53.2161 251.7514 0001420  66.2135 262.3004 15.08821932  1302,6917.936,95.439,540.783,538.818,0.0
52136.0,STARLINK-3720,PAYLOAD,2022-07-25 14:00:01,15.08819959,0.0001578,53.216,248.7605,58.2476,293.4453,0.0026809,0.00042613,0.0,0 STARLINK-3720,1 52136U 22029BA  22206.58334491  .00042613  00000-0  26809-2 0  9994,2 52136  53.2160 248.7605 0001578  58.2476 293.4453 15.08819959  1300,6917.941999999999,95.439,540.898,538.715,0.0
